{"fetched_at":"2026-07-14T17:40:50.181Z","source":"https://celestrak.org/NORAD/elements/gp.php?NAME=ICEYE&FORMAT=JSON","constellation":"iceye","records":[{"OBJECT_NAME":"ICEYE-X72","OBJECT_ID":"2026-067CS","EPOCH":"2026-07-13T19:58:03.459072","CLASSIFICATION_TYPE":"U","MEAN_MOTION":14.95744562,"ECCENTRICITY":0.0001762,"INCLINATION":97.7626,"RA_OF_ASC_NODE":152.8158,"ARG_OF_PERICENTER":163.4479,"MEAN_ANOMALY":196.68,"EPHEMERIS_TYPE":0,"NORAD_CAT_ID":68504,"ELEMENT_SET_NO":999,"REV_AT_EPOCH":1570,"BSTAR":0.010305,"MEAN_MOTION_DOT":0.00116655,"MEAN_MOTION_DDOT":0},{"OBJECT_NAME":"ICEYE-X78","OBJECT_ID":"2026-100R","EPOCH":"2026-07-14T04:10:16.743360","CLASSIFICATION_TYPE":"U","MEAN_MOTION":14.91811054,"ECCENTRICITY":0.0003652,"INCLINATION":97.7335,"RA_OF_ASC_NODE":92.1255,"ARG_OF_PERICENTER":57.3272,"MEAN_ANOMALY":302.8299,"EPHEMERIS_TYPE":0,"NORAD_CAT_ID":68995,"ELEMENT_SET_NO":999,"REV_AT_EPOCH":1072,"BSTAR":0.000041983,"MEAN_MOTION_DOT":0.00000368,"MEAN_MOTION_DDOT":0},{"OBJECT_NAME":"ICEYE-X82","OBJECT_ID":"2026-100S","EPOCH":"2026-07-14T01:28:17.063040","CLASSIFICATION_TYPE":"U","MEAN_MOTION":14.91421408,"ECCENTRICITY":0.0005742,"INCLINATION":97.7331,"RA_OF_ASC_NODE":91.9604,"ARG_OF_PERICENTER":66.8449,"MEAN_ANOMALY":293.3374,"EPHEMERIS_TYPE":0,"NORAD_CAT_ID":68996,"ELEMENT_SET_NO":999,"REV_AT_EPOCH":1070,"BSTAR":0.00015072,"MEAN_MOTION_DOT":0.00001451,"MEAN_MOTION_DDOT":0}]}
