ICEYE-X72               
1 68504U 26067CS  26194.83198448  .00116655  00000+0  10305-1 0  9994
2 68504  97.7626 152.8158 0001762 163.4479 196.6800 14.95744562 15702
ICEYE-X78               
1 68995U 26100R   26195.17380490  .00000368  00000+0  41983-4 0  9996
2 68995  97.7335  92.1255 0003652  57.3272 302.8299 14.91811054 10726
ICEYE-X82               
1 68996U 26100S   26195.06130860  .00001451  00000+0  15072-3 0  9992
2 68996  97.7331  91.9604 0005742  66.8449 293.3374 14.91421408 10707
